{
    "links": {
        "self": "http://www.neowsapp.com/rest/v1/neo/3690392?api_key=iIulBulltgU6a56xZRHN4H3l9WmuAYTsLGpBGhQ2"
    },
    "id": "3690392",
    "neo_reference_id": "3690392",
    "name": "(2014 SU223)",
    "designation": "2014 SU223",
    "nasa_jpl_url": "http://ssd.jpl.nasa.gov/sbdb.cgi?sstr=3690392",
    "absolute_magnitude_h": 27.0,
    "estimated_diameter": {
        "kilometers": {
            "estimated_diameter_min": 0.0105816886,
            "estimated_diameter_max": 0.023661375
        },
        "meters": {
            "estimated_diameter_min": 10.5816885933,
            "estimated_diameter_max": 23.6613750114
        },
        "miles": {
            "estimated_diameter_min": 0.0065751544,
            "estimated_diameter_max": 0.0147024923
        },
        "feet": {
            "estimated_diameter_min": 34.7168272045,
            "estimated_diameter_max": 77.6291855923
        }
    },
    "is_potentially_hazardous_asteroid": false,
    "close_approach_data": [
        {
            "close_approach_date": "2011-09-05",
            "close_approach_date_full": "2011-Sep-05 22:47",
            "epoch_date_close_approach": 1315262820000,
            "relative_velocity": {
                "kilometers_per_second": "20.8820558106",
                "kilometers_per_hour": "75175.4009182252",
                "miles_per_hour": "46711.0706427716"
            },
            "miss_distance": {
                "astronomical": "0.269041526",
                "lunar": "104.657153614",
                "kilometers": "40248039.23114962",
                "miles": "25008971.896799956"
            },
            "orbiting_body": "Earth"
        },
        {
            "close_approach_date": "2014-09-26",
            "close_approach_date_full": "2014-Sep-26 10:23",
            "epoch_date_close_approach": 1411726980000,
            "relative_velocity": {
                "kilometers_per_second": "12.8206689139",
                "kilometers_per_hour": "46154.4080901649",
                "miles_per_hour": "28678.5542935805"
            },
            "miss_distance": {
                "astronomical": "0.0052099822",
                "lunar": "2.0266830758",
                "kilometers": "779402.239857914",
                "miles": "484298.0946466532"
            },
            "orbiting_body": "Earth"
        },
        {
            "close_approach_date": "2014-09-26",
            "close_approach_date_full": "2014-Sep-26 15:49",
            "epoch_date_close_approach": 1411746540000,
            "relative_velocity": {
                "kilometers_per_second": "13.6137978465",
                "kilometers_per_hour": "49009.6722472758",
                "miles_per_hour": "30452.7044027587"
            },
            "miss_distance": {
                "astronomical": "0.0055585707",
                "lunar": "2.1622840023",
                "kilometers": "831550.336964409",
                "miles": "516701.4196264842"
            },
            "orbiting_body": "Moon"
        },
        {
            "close_approach_date": "2051-06-21",
            "close_approach_date_full": "2051-Jun-21 18:05",
            "epoch_date_close_approach": 2570983500000,
            "relative_velocity": {
                "kilometers_per_second": "6.3644942571",
                "kilometers_per_hour": "22912.1793256558",
                "miles_per_hour": "14236.7372037665"
            },
            "miss_distance": {
                "astronomical": "0.1492244967",
                "lunar": "58.0483292163",
                "kilometers": "22323666.858142029",
                "miles": "13871283.3656928402"
            },
            "orbiting_body": "Venus"
        },
        {
            "close_approach_date": "2079-01-26",
            "close_approach_date_full": "2079-Jan-26 13:03",
            "epoch_date_close_approach": 3441963780000,
            "relative_velocity": {
                "kilometers_per_second": "19.7438920689",
                "kilometers_per_hour": "71078.0114480756",
                "miles_per_hour": "44165.1121689446"
            },
            "miss_distance": {
                "astronomical": "0.2273459835",
                "lunar": "88.4375875815",
                "kilometers": "34010474.884655145",
                "miles": "21133129.137105201"
            },
            "orbiting_body": "Earth"
        }
    ],
    "orbital_data": {
        "orbit_id": "5",
        "orbit_determination_date": "2017-04-06 08:38:28",
        "first_observation_date": "2014-09-24",
        "last_observation_date": "2014-09-25",
        "data_arc_in_days": 1,
        "observations_used": 31,
        "orbit_uncertainty": "8",
        "minimum_orbit_intersection": ".00520967",
        "jupiter_tisserand_invariant": "3.494",
        "epoch_osculation": "2456925.5",
        "eccentricity": ".5963357851270242",
        "semi_major_axis": "2.103925242374871",
        "inclination": "1.346217032113927",
        "ascending_node_longitude": "350.289180472144",
        "orbital_period": "1114.663764172626",
        "perihelion_distance": ".8492793311146875",
        "perihelion_argument": "66.59723835992745",
        "aphelion_distance": "3.358571153635054",
        "perihelion_time": "2456964.914165122601",
        "mean_anomaly": "347.2705116105856",
        "mean_motion": ".3229673481556251",
        "equinox": "J2000",
        "orbit_class": {
            "orbit_class_type": "APO",
            "orbit_class_description": "Near-Earth asteroid orbits which cross the Earth’s orbit similar to that of 1862 Apollo",
            "orbit_class_range": "a (semi-major axis) > 1.0 AU; q (perihelion) < 1.017 AU"
        }
    },
    "is_sentry_object": false
}